start=new Date('2022-02-25T00:00:00.000Z').valueOf();
sats=[{"BSTAR":"0.00002144800000","CENTER_NAME":"EARTH","CLASSIFICATION_TYPE":"U","SITE":"AFETR","PERIOD":"95.593","PERIAPSIS":"546.127","FILE":"3320085","OBJECT_NAME":"STARLINK-2295","SEMIMAJOR_AXIS":"6925.375","DECAY_DATE":null,"COUNTRY_CODE":"US","OBJECT_TYPE":"PAYLOAD","APOAPSIS":"548.352","RA_OF_ASC_NODE":"109.8722","ECCENTRICITY":"0.00016060","MEAN_ANOMALY":"298.6818","LAUNCH_DATE":"2021-03-24","ELEMENT_SET_NO":"999","NORAD_CAT_ID":"48036","INCLINATION":"53.0539","MEAN_ELEMENT_THEORY":"SGP4","GP_ID":"196874711","EPHEMERIS_TYPE":"0","RCS_SIZE":"LARGE","TLE_LINE1":"1 48036U 21024BM  22055.42092108  .00000038  00000-0  21448-4 0  9994","MEAN_MOTION":"15.06391510","MEAN_MOTION_DDOT":"0.0000000000000","TLE_LINE2":"2 48036  53.0539 109.8722 0001606  61.4332 298.6818 15.06391510 51895","ARG_OF_PERICENTER":"61.4332","OBJECT_ID":"2021-024BM","REF_FRAME":"TEME","TIME_SYSTEM":"UTC","REV_AT_EPOCH":"5189","EPOCH":"2022-02-24T10:06:07.581312","MEAN_MOTION_DOT":"0.00000038"},{"DECAY_DATE":null,"SEMIMAJOR_AXIS":"6925.395","OBJECT_NAME":"STARLINK-2048","OBJECT_TYPE":"PAYLOAD","APOAPSIS":"548.144","COUNTRY_CODE":"US","CENTER_NAME":"EARTH","CLASSIFICATION_TYPE":"U","BSTAR":"0.00000134420000","PERIAPSIS":"546.377","FILE":"3320325","PERIOD":"95.593","SITE":"AFETR","EPHEMERIS_TYPE":"0","TLE_LINE1":"1 48092U 21027A   22055.86367005 -.00000261  00000-0  13442-5 0  9993","RCS_SIZE":"LARGE","MEAN_MOTION":"15.06384741","GP_ID":"196902490","EPOCH":"2022-02-24T20:43:41.092320","MEAN_MOTION_DOT":"-0.00000261","TIME_SYSTEM":"UTC","REV_AT_EPOCH":"5132","TLE_LINE2":"2 48092  53.0558 232.8779 0001276  88.7141 271.3994 15.06384741 51329","MEAN_MOTION_DDOT":"0.0000000000000","OBJECT_ID":"2021-027A","ARG_OF_PERICENTER":"88.7141","REF_FRAME":"TEME","MEAN_ANOMALY":"271.3994","ECCENTRICITY":"0.00012760","RA_OF_ASC_NODE":"232.8779","MEAN_ELEMENT_THEORY":"SGP4","ELEMENT_SET_NO":"999","INCLINATION":"53.0558","NORAD_CAT_ID":"48092","LAUNCH_DATE":"2021-04-07"},{"MEAN_ANOMALY":"278.9444","RA_OF_ASC_NODE":"297.7270","ECCENTRICITY":"0.00013220","MEAN_ELEMENT_THEORY":"SGP4","LAUNCH_DATE":"2021-04-07","ELEMENT_SET_NO":"999","INCLINATION":"53.0544","NORAD_CAT_ID":"48093","GP_ID":"196901238","EPHEMERIS_TYPE":"0","RCS_SIZE":"LARGE","TLE_LINE1":"1 48093U 21027B   22055.90007042  .00007719  00000-0  53698-3 0  9990","MEAN_MOTION":"15.06365961","EPOCH":"2022-02-24T21:36:06.084288","MEAN_MOTION_DOT":"0.00007719","TLE_LINE2":"2 48093  53.0544 297.7270 0001322  81.1695 278.9444 15.06365961 50420","ARG_OF_PERICENTER":"81.1695","MEAN_MOTION_DDOT":"0.0000000000000","REF_FRAME":"TEME","OBJECT_ID":"2021-027B","TIME_SYSTEM":"UTC","REV_AT_EPOCH":"5042","CLASSIFICATION_TYPE":"U","CENTER_NAME":"EARTH","BSTAR":"0.00053698000000","FILE":"3320325","PERIAPSIS":"546.402","SITE":"AFETR","PERIOD":"95.594","SEMIMAJOR_AXIS":"6925.453","DECAY_DATE":null,"OBJECT_NAME":"STARLINK-2404","OBJECT_TYPE":"PAYLOAD","APOAPSIS":"548.233","COUNTRY_CODE":"US"},{"MEAN_MOTION":"15.06401949","TLE_LINE1":"1 48094U 21027C   22055.93694336  .00001220  00000-0  10076-3 0  9996","RCS_SIZE":"LARGE","EPHEMERIS_TYPE":"0","GP_ID":"196900989","REV_AT_EPOCH":"5029","TIME_SYSTEM":"UTC","TLE_LINE2":"2 48094  53.0549 307.5572 0001526  69.2838 290.8314 15.06401949 50294","MEAN_MOTION_DDOT":"0.0000000000000","OBJECT_ID":"2021-027C","REF_FRAME":"TEME","ARG_OF_PERICENTER":"69.2838","MEAN_MOTION_DOT":"0.00001220","EPOCH":"2022-02-24T22:29:11.906304","ECCENTRICITY":"0.00015260","RA_OF_ASC_NODE":"307.5572","MEAN_ANOMALY":"290.8314","NORAD_CAT_ID":"48094","INCLINATION":"53.0549","ELEMENT_SET_NO":"999","LAUNCH_DATE":"2021-04-07","MEAN_ELEMENT_THEORY":"SGP4","OBJECT_NAME":"STARLINK-2412","DECAY_DATE":null,"SEMIMAJOR_AXIS":"6925.343","COUNTRY_CODE":"US","APOAPSIS":"548.264","OBJECT_TYPE":"PAYLOAD","BSTAR":"0.00010076000000","CLASSIFICATION_TYPE":"U","CENTER_NAME":"EARTH","PERIOD":"95.592","SITE":"AFETR","FILE":"3320325","PERIAPSIS":"546.151"},{"COUNTRY_CODE":"US","OBJECT_TYPE":"PAYLOAD","APOAPSIS":"548.255","OBJECT_NAME":"STARLINK-2414","DECAY_DATE":null,"SEMIMAJOR_AXIS":"6925.379","PERIOD":"95.593","SITE":"AFETR","FILE":"3320325","PERIAPSIS":"546.233","BSTAR":"0.00007509300000","CLASSIFICATION_TYPE":"U","CENTER_NAME":"EARTH","TIME_SYSTEM":"UTC","REV_AT_EPOCH":"5030","TLE_LINE2":"2 48095  53.0536 307.5317 0001460  73.2378 286.8772 15.06389995 50300","REF_FRAME":"TEME","MEAN_MOTION_DDOT":"0.0000000000000","OBJECT_ID":"2021-027D","ARG_OF_PERICENTER":"73.2378","EPOCH":"2022-02-24T22:39:49.953024","MEAN_MOTION_DOT":"0.00000837","EPHEMERIS_TYPE":"0","RCS_SIZE":"LARGE","TLE_LINE1":"1 48095U 21027D   22055.94432816  .00000837  00000-0  75093-4 0  9995","MEAN_MOTION":"15.06389995","GP_ID":"196902240","ELEMENT_SET_NO":"999","INCLINATION":"53.0536","NORAD_CAT_ID":"48095","LAUNCH_DATE":"2021-04-07","MEAN_ELEMENT_THEORY":"SGP4","ECCENTRICITY":"0.00014600","RA_OF_ASC_NODE":"307.5317","MEAN_ANOMALY":"286.8772"},{"CLASSIFICATION_TYPE":"U","CENTER_NAME":"EARTH","BSTAR":"0.00001599000000","PERIAPSIS":"546.109","FILE":"3320325","SITE":"AFETR","PERIOD":"95.593","SEMIMAJOR_AXIS":"6925.377","DECAY_DATE":null,"OBJECT_NAME":"STARLINK-2417","OBJECT_TYPE":"PAYLOAD","APOAPSIS":"548.374","COUNTRY_CODE":"US","MEAN_ANOMALY":"292.9371","RA_OF_ASC_NODE":"307.6479","ECCENTRICITY":"0.00016350","MEAN_ELEMENT_THEORY":"SGP4","LAUNCH_DATE":"2021-04-07","ELEMENT_SET_NO":"999","NORAD_CAT_ID":"48096","INCLINATION":"53.0529","GP_ID":"196901991","EPHEMERIS_TYPE":"0","TLE_LINE1":"1 48096U 21027E   22055.91851892 -.00000043  00000-0  15990-4 0  9992","RCS_SIZE":"LARGE","MEAN_MOTION":"15.06390844","EPOCH":"2022-02-24T22:02:40.034688","MEAN_MOTION_DOT":"-0.00000043","MEAN_MOTION_DDOT":"0.0000000000000","TLE_LINE2":"2 48096  53.0529 307.6479 0001635  67.1790 292.9371 15.06390844 50282","REF_FRAME":"TEME","ARG_OF_PERICENTER":"67.1790","OBJECT_ID":"2021-027E","TIME_SYSTEM":"UTC","REV_AT_EPOCH":"5028"},{"OBJECT_ID":"2021-027F","TLE_LINE2":"2 48097  53.0558 287.7329 0001443  88.9414 271.1740 15.06387588 50569","MEAN_MOTION_DDOT":"0.0000000000000","REF_FRAME":"TEME","ARG_OF_PERICENTER":"88.9414","REV_AT_EPOCH":"5056","TIME_SYSTEM":"UTC","MEAN_MOTION_DOT":"0.00000305","EPOCH":"2022-02-24T21:33:29.154240","GP_ID":"196900739","TLE_LINE1":"1 48097U 21027F   22055.89825410  .00000305  00000-0  39389-4 0  9995","MEAN_MOTION":"15.06387588","RCS_SIZE":"LARGE","EPHEMERIS_TYPE":"0","LAUNCH_DATE":"2021-04-07","INCLINATION":"53.0558","NORAD_CAT_ID":"48097","ELEMENT_SET_NO":"999","MEAN_ELEMENT_THEORY":"SGP4","RA_OF_ASC_NODE":"287.7329","ECCENTRICITY":"0.00014430","MEAN_ANOMALY":"271.1740","COUNTRY_CODE":"US","APOAPSIS":"548.251","OBJECT_TYPE":"PAYLOAD","OBJECT_NAME":"STARLINK-2418","SEMIMAJOR_AXIS":"6925.387","DECAY_DATE":null,"SITE":"AFETR","PERIOD":"95.593","PERIAPSIS":"546.252","FILE":"3320325","BSTAR":"0.00003938900000","CENTER_NAME":"EARTH","CLASSIFICATION_TYPE":"U"},{"CENTER_NAME":"EARTH","CLASSIFICATION_TYPE":"U","BSTAR":"-0.00005750700000","FILE":"3320325","PERIAPSIS":"546.242","SITE":"AFETR","PERIOD":"95.593","SEMIMAJOR_AXIS":"6925.386","DECAY_DATE":null,"OBJECT_NAME":"STARLINK-2421","APOAPSIS":"548.260","OBJECT_TYPE":"PAYLOAD","COUNTRY_CODE":"US","MEAN_ANOMALY":"292.2983","RA_OF_ASC_NODE":"297.5436","ECCENTRICITY":"0.00014570","MEAN_ELEMENT_THEORY":"SGP4","LAUNCH_DATE":"2021-04-07","INCLINATION":"53.0546","NORAD_CAT_ID":"48098","ELEMENT_SET_NO":"999","GP_ID":"196901489","RCS_SIZE":"LARGE","TLE_LINE1":"1 48098U 21027G   22055.94156415 -.00001138  00000-0 -57507-4 0  9993","MEAN_MOTION":"15.06387860","EPHEMERIS_TYPE":"0","MEAN_MOTION_DOT":"-0.00001138","EPOCH":"2022-02-24T22:35:51.142560","ARG_OF_PERICENTER":"67.8160","TLE_LINE2":"2 48098  53.0546 297.5436 0001457  67.8160 292.2983 15.06387860 50425","MEAN_MOTION_DDOT":"0.0000000000000","OBJECT_ID":"2021-027G","REF_FRAME":"TEME","REV_AT_EPOCH":"5042","TIME_SYSTEM":"UTC"},{"MEAN_ANOMALY":"295.3978","RA_OF_ASC_NODE":"307.5866","ECCENTRICITY":"0.00014810","MEAN_ELEMENT_THEORY":"SGP4","LAUNCH_DATE":"2021-04-07","INCLINATION":"53.0565","NORAD_CAT_ID":"48099","ELEMENT_SET_NO":"999","GP_ID":"196901741","TLE_LINE1":"1 48099U 21027H   22055.92956830 -.00000261  00000-0  13772-5 0  9993","MEAN_MOTION":"15.06399077","RCS_SIZE":"LARGE","EPHEMERIS_TYPE":"0","MEAN_MOTION_DOT":"-0.00000261","EPOCH":"2022-02-24T22:18:34.701120","MEAN_MOTION_DDOT":"0.0000000000000","TLE_LINE2":"2 48099  53.0565 307.5866 0001481  64.7164 295.3978 15.06399077 50288","OBJECT_ID":"2021-027H","ARG_OF_PERICENTER":"64.7164","REF_FRAME":"TEME","REV_AT_EPOCH":"5028","TIME_SYSTEM":"UTC","CENTER_NAME":"EARTH","CLASSIFICATION_TYPE":"U","BSTAR":"0.00000137720000","PERIAPSIS":"546.191","FILE":"3320325","SITE":"AFETR","PERIOD":"95.592","SEMIMAJOR_AXIS":"6925.351","DECAY_DATE":null,"OBJECT_NAME":"STARLINK-2428","APOAPSIS":"548.242","OBJECT_TYPE":"PAYLOAD","COUNTRY_CODE":"US"},{"DECAY_DATE":null,"SEMIMAJOR_AXIS":"6925.378","OBJECT_NAME":"STARLINK-2430","OBJECT_TYPE":"PAYLOAD","APOAPSIS":"548.413","COUNTRY_CODE":"US","CLASSIFICATION_TYPE":"U","CENTER_NAME":"EARTH","BSTAR":"0.00003358800000","PERIAPSIS":"546.073","FILE":"3320325","PERIOD":"95.593","SITE":"AFETR","EPHEMERIS_TYPE":"0","RCS_SIZE":"LARGE","TLE_LINE1":"1 48100U 21027J   22055.89087495  .00000219  00000-0  33588-4 0  9992","MEAN_MOTION":"15.06390411","GP_ID":"196902491","EPOCH":"2022-02-24T21:22:51.595680","MEAN_MOTION_DOT":"0.00000219","TIME_SYSTEM":"UTC","REV_AT_EPOCH":"5056","TLE_LINE2":"2 48100  53.0540 287.7642 0001690  73.1668 286.9507 15.06390411 50568","MEAN_MOTION_DDOT":"0.0000000000000","ARG_OF_PERICENTER":"73.1668","REF_FRAME":"TEME","OBJECT_ID":"2021-027J","MEAN_ANOMALY":"286.9507","ECCENTRICITY":"0.00016900","RA_OF_ASC_NODE":"287.7642","MEAN_ELEMENT_THEORY":"SGP4","ELEMENT_SET_NO":"999","NORAD_CAT_ID":"48100","INCLINATION":"53.0540","LAUNCH_DATE":"2021-04-07"}];
